     3.04           N: GNSS NAV DATA    R: GLONASS          RINEX VERSION / TYPE
Converto v3.5.5     IGN                 20210829 012016 UTC PGM / RUN BY / DATE 
GLUT -0.4656612873E-09 0.000000000E+00 147456 2172          TIME SYSTEM CORR
    18                                                      LEAP SECONDS        
                                                            END OF HEADER       
R10 2021 08 28 16 45 00-7.439497858286E-05-0.000000000000E+00 5.778000000000E+05
     2.282921972656E+04 1.370758056641E+00 1.862645149231E-09 0.000000000000E+00
     4.308142578125E+03 4.408283233643E-01-0.000000000000E+00-7.000000000000E+00
    -1.045538818359E+04 3.180558204651E+00-0.000000000000E+00 0.000000000000E+00
R10 2021 08 28 17 15 00-7.439590990543E-05-0.000000000000E+00 5.796000000000E+05
     2.464723046875E+04 6.204891204834E-01 1.862645149231E-09 0.000000000000E+00
     4.696349121094E+03 2.123546600342E-02-9.313225746155E-10-7.000000000000E+00
    -4.398847167969E+03 3.505079269409E+00-9.313225746155E-10 0.000000000000E+00
R10 2021 08 28 17 45 00-7.439777255058E-05-0.000000000000E+00 5.814000000000E+05
     2.499008642578E+04-2.505683898926E-01 9.313225746155E-10 0.000000000000E+00
     4.513035644531E+03-1.856498718262E-01-9.313225746155E-10-7.000000000000E+00
     1.999212890625E+03 3.557515144348E+00-9.313225746155E-10 0.000000000000E+00
R10 2021 08 28 18 15 00-7.439963519573E-05-0.000000000000E+00 5.832000000000E+05
     2.374079638672E+04-1.128862380981E+00 0.000000000000E+00 0.000000000000E+00
     4.174303710938E+03-1.502437591553E-01-9.313225746155E-10-7.000000000000E+00
     8.242042480469E+03 3.333742141724E+00-1.862645149231E-09 0.000000000000E+00
R10 2021 08 28 18 45 00-7.440056651831E-05-0.000000000000E+00 5.850000000000E+05
     2.099165380859E+04-1.898597717285E+00-0.000000000000E+00 0.000000000000E+00
     4.109109863281E+03 1.119794845581E-01-9.313225746155E-10-7.000000000000E+00
     1.384511474609E+04 2.851369857788E+00-1.862645149231E-09 0.000000000000E+00
R10 2021 08 28 19 15 00-7.440149784088E-05-0.000000000000E+00 5.868000000000E+05
     1.703121728516E+04-2.460480690002E+00-0.000000000000E+00 0.000000000000E+00
     4.679564453125E+03 5.433311462402E-01-0.000000000000E+00-7.000000000000E+00
     1.837419433594E+04 2.148276329041E+00-1.862645149231E-09 0.000000000000E+00
R10 2021 08 28 19 45 00-7.440336048603E-05-0.000000000000E+00 5.886000000000E+05
     1.229962304688E+04-2.747655868530E+00-9.313225746155E-10 0.000000000000E+00
     6.113001953125E+03 1.053947448730E+00 0.000000000000E+00-7.000000000000E+00
     2.147922998047E+04 1.279478073120E+00-1.862645149231E-09 0.000000000000E+00
R10 2021 08 28 20 15 00-7.440336048603E-05-0.000000000000E+00 5.904000000000E+05
     7.319799316406E+03-2.736166000366E+00-9.313225746155E-10 0.000000000000E+00
     8.457363769531E+03 1.537266731262E+00 9.313225746155E-10-7.000000000000E+00
     2.292135644531E+04 3.126621246338E-01-1.862645149231E-09 0.000000000000E+00
R10 2021 08 28 20 45 00-7.440336048603E-05-0.000000000000E+00 5.922000000000E+05
     2.616128417969E+03-2.448260307312E+00-9.313225746155E-10 0.000000000000E+00
     1.156737939453E+04 1.888279914856E+00 1.862645149231E-09-7.000000000000E+00
     2.259095605469E+04-6.772003173828E-01-1.862645149231E-09 0.000000000000E+00
R10 2021 08 28 21 15 00-7.440336048603E-05-0.000000000000E+00 5.940000000000E+05
    -1.365942382812E+03-1.948072433472E+00-9.313225746155E-10 0.000000000000E+00
     1.512378173828E+04 2.021471977234E+00 2.793967723846E-09-7.000000000000E+00
     2.051553906250E+04-1.613704681396E+00-9.313225746155E-10 0.000000000000E+00
R10 2021 08 28 21 45 00-7.440336048603E-05-0.000000000000E+00 5.958000000000E+05
    -4.326205078125E+03-1.330508232117E+00-0.000000000000E+00 0.000000000000E+00
     1.868229443359E+04 1.885490417480E+00 2.793967723846E-09-7.000000000000E+00
     1.685703027344E+04-2.424858093262E+00-0.000000000000E+00 0.000000000000E+00
R10 2021 08 28 22 15 00-0.744033604860D-04 0.000000000000D+00 0.597600000000D+06
    -0.615121630859D+04-0.705232620239D+00 0.000000000000D+00 0.000000000000D+00
     0.217442133789D+05 0.147215080261D+01 0.279396772385D-08-0.700000000000D+01
     0.118988398438D+05-0.304851818085D+01 0.000000000000D+00 0.000000000000D+00
R10 2021 08 28 22 45 00-0.744033604860D-04 0.000000000000D+00 0.599400000000D+06
    -0.692453955078D+04-0.178403854370D+00 0.931322574615D-09 0.000000000000D+00
     0.238369506836D+05 0.818346023560D+00 0.279396772385D-08-0.700000000000D+01
     0.602382324219D+04-0.343702316284D+01 0.931322574615D-09 0.000000000000D+00
R11 2021 08 27 23 45 00 4.731491208076E-05 9.094947017729E-13 5.166000000000E+05
     9.569518066406E+03-4.259653091431E-01 9.313225746155E-10 5.000000000000E+00
     7.533829589844E+03 3.037487030029E+00 1.862645149231E-09 0.000000000000E+00
     2.242616894531E+04-8.406209945679E-01-1.862645149231E-09 0.000000000000E+00
R11 2021 08 28 00 15 00 4.731677472591E-05 9.094947017729E-13 5.184000000000E+05
     9.219597167969E+03 2.629089355469E-02 1.862645149231E-09 5.000000000000E+00
     1.278316552734E+04 2.745766639709E+00 1.862645149231E-09 0.000000000000E+00
     2.006683935547E+04-1.763931274414E+00-9.313225746155E-10 0.000000000000E+00
R11 2021 08 28 00 45 00 4.731863737106E-05 9.094947017729E-13 5.202000000000E+05
     9.594981933594E+03 3.639659881592E-01 1.862645149231E-09 5.000000000000E+00
     1.725527343750E+04 2.183245658875E+00 1.862645149231E-09 0.000000000000E+00
     1.615768994141E+04-2.551465034485E+00-9.313225746155E-10 0.000000000000E+00
R11 2021 08 28 01 15 00 4.732050001621E-05 9.094947017729E-13 5.220000000000E+05
     1.041113623047E+04 5.049514770508E-01 2.793967723846E-09 5.000000000000E+00
     2.052471093750E+04 1.424816131592E+00 9.313225746155E-10 0.000000000000E+00
     1.099992626953E+04-3.142239570618E+00-0.000000000000E+00 0.000000000000E+00
R11 2021 08 28 01 45 00 4.732143133879E-05 9.094947017729E-13 5.238000000000E+05
     1.126593798828E+04 4.026460647583E-01 2.793967723846E-09 5.000000000000E+00
     2.232914160156E+04 5.743560791016E-01 0.000000000000E+00 0.000000000000E+00
     4.991620605469E+03-3.490322113037E+00 0.000000000000E+00 0.000000000000E+00
R11 2021 08 28 02 15 00 4.732329398394E-05 9.094947017729E-13 5.256000000000E+05
     1.171210888672E+04 5.427646636963E-02 1.862645149231E-09 5.000000000000E+00
     2.260699804688E+04-2.519817352295E-01-0.000000000000E+00 0.000000000000E+00
    -1.402849609375E+03-3.568470954895E+00 9.313225746155E-10 0.000000000000E+00
R11 2021 08 28 02 45 00 4.732422530651E-05 9.094947017729E-13 5.274000000000E+05
     1.133813085938E+04-4.981298446655E-01 9.313225746155E-10 5.000000000000E+00
     2.150277490234E+04-9.445276260376E-01-9.313225746155E-10 0.000000000000E+00
    -7.688684082031E+03-3.370361328125E+00 1.862645149231E-09 0.000000000000E+00
R11 2021 08 28 03 15 00 4.732515662909E-05 9.094947017729E-13 5.292000000000E+05
     9.844049804688E+03-1.174331665039E+00 0.000000000000E+00 5.000000000000E+00
     1.933905029297E+04-1.417774200439E+00-9.313225746155E-10 0.000000000000E+00
    -1.337908740234E+04-2.911166191101E+00 1.862645149231E-09 0.000000000000E+00
R11 2021 08 28 03 45 00 4.732608795166E-05 9.094947017729E-13 5.310000000000E+05
     7.099326660156E+03-1.868952751160E+00-0.000000000000E+00 5.000000000000E+00
     1.655990576172E+04-1.624024391174E+00-9.313225746155E-10 0.000000000000E+00
    -1.803319091797E+04-2.226411819458E+00 1.862645149231E-09 0.000000000000E+00
R11 2021 08 28 04 15 00 0.473270192742D-04 0.909494701773D-12 0.532800000000D+06
     0.317285937500D+04-0.246888256073D+01-0.931322574615D-09 0.100000000000D+01
     0.136552290039D+05-0.156068801880D+01 0.000000000000D+00 0.000000000000D+00
    -0.212904272461D+05-0.136920547485D+01 0.186264514923D-08 0.000000000000D+00
R11 2021 08 28 04 45 00 0.473279505968D-04 0.909494701773D-12 0.534600000000D+06
    -0.167002783203D+04-0.287206268311D+01-0.186264514923D-08 0.100000000000D+01
     0.110785825195D+05-0.127002334595D+01 0.000000000000D+00 0.000000000000D+00
    -0.228986069336D+05-0.406066894531D+00 0.186264514923D-08 0.000000000000D+00
R11 2021 08 28 05 15 00 0.473298132420D-04 0.909494701773D-12 0.536400000000D+06
    -0.700330712891D+04-0.300452423096D+01-0.186264514923D-08 0.100000000000D+01
     0.917239843750D+04-0.831389427185D+00 0.000000000000D+00 0.000000000000D+00
    -0.227334868164D+05 0.588294982910D+00 0.186264514923D-08 0.000000000000D+00
R11 2021 08 28 05 45 00 4.733074456453E-05 9.094947017729E-13 5.382000000000E+05
    -1.230287304688E+04-2.832825660706E+00-1.862645149231E-09 5.000000000000E+00
     8.112947753906E+03-3.473281860352E-01 9.313225746155E-10 0.000000000000E+00
    -2.080832226562E+04 1.536816596985E+00 9.313225746155E-10 0.000000000000E+00
R11 2021 08 28 06 15 00 0.473316758871D-04 0.909494701773D-12 0.540000000000D+06
    -0.170257958984D+05-0.236983394623D+01-0.186264514923D-08 0.100000000000D+01
     0.788420166016D+04 0.741548538208D-01 0.186264514923D-08 0.000000000000D+00
    -0.172726958008D+05 0.236607265472D+01 0.000000000000D+00 0.000000000000D+00
R11 2021 08 28 06 45 00 4.733353853226E-05 9.094947017729E-13 5.418000000000E+05
    -2.069317773438E+04-1.672883033752E+00-9.313225746155E-10 5.000000000000E+00
     8.284811523438E+03 3.381500244141E-01 1.862645149231E-09 0.000000000000E+00
    -1.240076074219E+04 3.011976242065E+00 0.000000000000E+00 0.000000000000E+00
R11 2021 08 28 07 15 00 4.733446985483E-05 9.094947017729E-13 5.436000000000E+05
    -2.296298437500E+04-8.346424102783E-01-9.313225746155E-10 5.000000000000E+00
     8.966903320312E+03 3.791341781616E-01 1.862645149231E-09 0.000000000000E+00
    -6.569840820312E+03 3.424724578857E+00-0.000000000000E+00 0.000000000000E+00
